H1 CPF 01  gfz 2022 03 03 01  5621 tandemx   
H2 1003001  6202 36605    2022 03 03 00 59 42 2022 03 08 00 00 42   120 1 1  0 0 0
H9
10 0 59645  38862.000000  0    -716230.291   -674119.635  -6825060.745
10 0 59645  38982.000000  0   -1001616.781    198449.650  -6819544.798
10 0 59645  39102.000000  0   -1254380.243   1072292.929  -6695131.603
10 0 59645  39222.000000  0   -1470254.923   1931670.233  -6453959.301
10 0 59645  39342.000000  0   -1645879.365   2761008.632  -6100176.241
10 0 59645  39462.000000  0   -1778848.634   3545179.688  -5639878.938
10 0 59645  39582.000000  0   -1867746.557   4269773.635  -5081017.197
10 0 59645  39702.000000  0   -1912157.917   4921366.168  -4433268.906
10 0 59645  39822.000000  0   -1912660.103   5487772.994  -3707882.587
10 0 59645  39942.000000  0   -1870793.267   5958285.239  -2917490.314
10 0 59645  40062.000000  0   -1789009.599   6323881.669  -2075894.508
10 0 59645  40182.000000  0   -1670603.376   6577413.565  -1197829.598
10 0 59645  40302.000000  0   -1519622.157   6713754.754   -298703.008
10 0 59645  40422.000000  0   -1340761.452   6729915.205    605678.518
10 0 59645  40542.000000  0   -1139244.820   6625113.909   1499395.816
10 0 59645  40662.000000  0    -920692.773   6400803.207   2366709.041
10 0 59645  40782.000000  0    -690983.499   6060647.072   3192342.936
10 0 59645  40902.000000  0    -456109.831   5610456.900   3961761.802
10 0 59645  41022.000000  0    -222036.456   5058086.587   4661430.395
10 0 59645  41142.000000  0       5440.689   4413284.145   5279057.097
10 0 59645  41262.000000  0     220829.306   3687508.144   5803805.259
10 0 59645  41382.000000  0     419064.796   2893717.191   6226480.638
10 0 59645  41502.000000  0     595622.289   2046130.133   6539687.258
10 0 59645  41622.000000  0     746614.484   1159966.592   6737950.771
10 0 59645  41742.000000  0     868873.333    251170.477   6817808.263
10 0 59645  41862.000000  0     960014.316   -663876.280   6777864.525
10 0 59645  41982.000000  0    1018482.211  -1568648.518   6618816.233
10 0 59645  42102.000000  0    1043577.710  -2446776.135   6343440.812
10 0 59645  42222.000000  0    1035464.482  -3282341.233   5956551.501
10 0 59645  42342.000000  0     995155.688  -4060169.188   5464916.565
10 0 59645  42462.000000  0     924482.121  -4766106.289   4877145.671
10 0 59645  42582.000000  0     826041.951  -5387282.446   4203546.094
10 0 59645  42702.000000  0     703132.369  -5912355.425   3455947.250
10 0 59645  42822.000000  0     559664.360  -6331728.467   2647494.475
10 0 59645  42942.000000  0     400062.195  -6637735.449   1792416.699
10 0 59645  43062.000000  0     229150.264  -6824789.480    905772.961
10 0 59645  43182.000000  0      52030.092  -6889493.510      3181.078
10 0 59645  43302.000000  0    -126050.274  -6830705.394   -899467.983
10 0 59645  43422.000000  0    -299829.355  -6649555.249  -1786299.639
10 0 59645  43542.000000  0    -464164.915  -6349417.615  -2641742.033
10 0 59645  43662.000000  0    -614163.155  -5935840.452  -3450804.958
10 0 59645  43782.000000  0    -745301.472  -5416431.492  -4199345.952
10 0 59645  43902.000000  0    -853541.328  -4800704.726  -4874316.739
10 0 59645  44022.000000  0    -935428.700  -4099893.690  -5463985.114
10 0 59645  44142.000000  0    -988180.064  -3326736.282  -5958130.679
10 0 59645  44262.000000  0   -1009752.117  -2495235.757  -6348211.766
10 0 59645  44382.000000  0    -998894.359  -1620402.802  -6627501.608
10 0 59645  44502.000000  0    -955183.916   -717984.723  -6791192.951
10 0 59645  44622.000000  0    -879042.315    195814.515  -6836472.179
10 0 59645  44742.000000  0    -771733.009   1104619.161  -6762561.288
10 0 59645  44862.000000  0    -635340.715   1992167.150  -6570729.586
10 0 59645  44982.000000  0    -472733.122   2842593.406  -6264274.525
10 0 59645  45102.000000  0    -287504.450   3640708.366  -5848472.733
10 0 59645  45222.000000  0     -83901.415   4372267.875  -5330498.562
10 0 59645  45342.000000  0     133266.585   5024228.293  -4719311.457
10 0 59645  45462.000000  0     358731.622   5584985.110  -4025512.717
10 0 59645  45582.000000  0     586884.493   6044588.756  -3261171.168
10 0 59645  45702.000000  0     811902.592   6394932.309  -2439620.582
10 0 59645  45822.000000  0    1027885.887   6629907.529  -1575231.235
10 0 59645  45942.000000  0    1228997.791   6745524.087   -683158.339
10 0 59645  46062.000000  0    1409607.689   6739987.971    220927.742
10 0 59645  46182.000000  0    1564431.124   6613735.383   1121123.788
10 0 59645  46302.000000  0    1688663.075   6369422.080   2001581.082
10 0 59645  46422.000000  0    1778102.316   6011869.222   2846792.524
10 0 59645  46542.000000  0    1829263.282   5547966.163   3641873.525
10 0 59645  46662.000000  0    1839472.128   4986531.943   4372831.536
10 0 59645  46782.000000  0    1806944.917   4338138.423   5026816.714
10 0 59645  46902.000000  0    1730845.621   3614899.291   5592348.780
10 0 59645  47022.000000  0    1611322.885   2830235.167   6059513.350
10 0 59645  47142.000000  0    1449526.213   1998618.445   6420131.773
10 0 59645  47262.000000  0    1247600.108   1135300.568   6667899.111
10 0 59645  47382.000000  0    1008656.853    256028.683   6798487.454
10 0 59645  47502.000000  0     736728.650   -623240.823   6809616.269
10 0 59645  47622.000000  0     436699.401  -1486631.461   6701091.524
10 0 59645  47742.000000  0     114216.783  -2318633.538   6474808.903
10 0 59645  47862.000000  0    -224413.988  -3104383.427   6134722.743
10 0 59645  47982.000000  0    -572351.777  -3829930.598   5686778.774
10 0 59645  48102.000000  0    -922354.399  -4482485.982   5138815.009
10 0 59645  48222.000000  0   -1266926.105  -5050652.224   4500433.433
10 0 59645  48342.000000  0   -1598476.069  -5524632.559   3782838.269
10 0 59645  48462.000000  0   -1909482.629  -5896409.894   2998641.230
10 0 59645  48582.000000  0   -2192660.332  -6159890.959   2161639.659
10 0 59645  48702.000000  0   -2441125.919  -6311013.581   1286571.099
10 0 59645  48822.000000  0   -2648557.861  -6347814.110    388847.981
10 0 59645  48942.000000  0   -2809346.158  -6270452.919   -515721.562
10 0 59645  49062.000000  0   -2918728.497  -6081196.975  -1411220.868
10 0 59645  49182.000000  0   -2972909.575  -5784359.715  -2281913.483
10 0 59645  49302.000000  0   -2969160.571  -5386200.143  -3112527.052
10 0 59645  49422.000000  0   -2905895.787  -4894783.527  -3888526.241
10 0 59645  49542.000000  0   -2782724.622  -4319808.151  -4596367.563
10 0 59645  49662.000000  0   -2600478.824  -3672404.560  -5223731.809
10 0 59645  49782.000000  0   -2361215.333  -2964912.213  -5759731.374
10 0 59645  49902.000000  0   -2068194.853  -2210638.496  -6195090.023
10 0 59645  50022.000000  0   -1725835.786  -1423604.992  -6522292.865
10 0 59645  50142.000000  0   -1339645.612   -618286.439  -6735704.135
10 0 59645  50262.000000  0    -916132.272    190652.383  -6831653.189
10 0 59645  50382.000000  0    -462695.894    988617.421  -6808490.285
10 0 59645  50502.000000  0      12497.996   1761341.697  -6666611.692
10 0 59645  50622.000000  0     500660.468   2495133.367  -6408454.190
10 0 59645  50742.000000  0     992537.832   3177114.246  -6038459.966
10 0 59645  50862.000000  0    1478583.252   3795444.180  -5563007.587
10 0 59645  50982.000000  0    1949137.707   4339526.877  -4990312.393
10 0 59645  51102.000000  0    2394619.268   4800195.844  -4330296.727
10 0 59645  51222.000000  0    2805716.472   5169876.510  -3594428.211
10 0 59645  51342.000000  0    3173581.736   5442719.551  -2795529.154
10 0 59645  51462.000000  0    3490021.874   5614703.596  -1947558.807
10 0 59645  51582.000000  0    3747680.156   5683702.791  -1065370.983
10 0 59645  51702.000000  0    3940204.887   5649517.800   -164451.433
10 0 59645  51822.000000  0    4062400.072   5513868.080    739359.661
10 0 59645  51942.000000  0    4110354.375   5280344.728   1630153.907
10 0 59645  52062.000000  0    4081544.391   4954325.686   2492241.959
10 0 59645  52182.000000  0    3974911.247   4542857.438   3310439.503
10 0 59645  52302.000000  0    3790904.430   4054499.614   4070342.738
10 0 59645  52422.000000  0    3531496.567   3499142.902   4758584.875
10 0 59645  52542.000000  0    3200166.799   2887804.571   5363075.259
10 0 59645  52662.000000  0    2801850.198   2232402.612   5873210.632
10 0 59645  52782.000000  0    2342861.904   1545518.315   6280055.092
10 0 59645  52902.000000  0    1830793.782    840150.786   6576491.693
10 0 59645  53022.000000  0    1274385.343    129469.190   6757340.102
10 0 59645  53142.000000  0     683372.565   -573431.895   6819442.217
10 0 59645  53262.000000  0      68316.836  -1255774.059   6761715.049
10 0 59645  53382.000000  0    -559584.157  -1905327.372   6585167.954
10 0 59645  53502.000000  0   -1188700.260  -2510629.713   6292885.180
10 0 59645  53622.000000  0   -1807182.556  -3061188.984   5889973.745
10 0 59645  53742.000000  0   -2403184.392  -3547666.326   5383480.726
10 0 59645  53862.000000  0   -2965089.903  -3962039.033   4782277.974
10 0 59645  53982.000000  0   -3481744.866  -4297738.311   4096912.099
10 0 59645  54102.000000  0   -3942681.795  -4549758.184   3339422.163
10 0 59645  54222.000000  0   -4338334.890  -4714734.209   2523129.605
10 0 59645  54342.000000  0   -4660241.846  -4790990.621   1662403.303
10 0 59645  54462.000000  0   -4901227.099  -4778552.972    772402.027
10 0 59645  54582.000000  0   -5055561.042  -4679125.835   -131199.206
10 0 59645  54702.000000  0   -5119091.583  -4496036.366  -1032493.626
10 0 59645  54822.000000  0   -5089343.958  -4234144.760  -1915632.499
10 0 59645  54942.000000  0   -4965585.466  -3899722.988  -2765112.701
10 0 59645  55062.000000  0   -4748854.057  -3500306.393  -3566054.066
10 0 59645  55182.000000  0   -4441951.938  -3044523.277  -4304461.631
10 0 59645  55302.000000  0   -4049404.631  -2541906.461  -4967468.694
99
